NEXTSAT-1               
1 43811U 18099BF  26068.68342010  .00004546  00000+0  29857-3 0  9992
2 43811  97.4203 114.8574 0011320 323.9610  36.0854 15.08057555396886
STARLINK-35051          
1 65380U 25191B   26068.63705183  .00002806  00000+0  19860-3 0  9997
2 65380  97.6019 301.5070 0002487  67.5466 292.6024 15.05650082 30276
